     2.100          NAVIGATION                              RINEX VERSION / TYPE
fic2rin                                 05/26/2010 00:24:16 PGM / RUN BY / DATE
                                                            END OF HEADER
 1 10  5 25  2  0  0.0 -.122978817672D-03 -.409272615798D-11  .000000000000D+00
     .200000000000D+02  .223750000000D+02  .598489215192D-08 -.302860540605D+01
     .103563070297D-05  .470253336243D-02  .800378620625D-05  .515479551506D+04
     .180000000000D+06  .149011611938D-07 -.272984697830D+01 -.949949026108D-07
     .964881222856D+00  .227937500000D+03  .866298936119D+00 -.796568894578D-08
     .538951020902D-09  .100000000000D+01  .158500000000D+04  .000000000000D+00
     .240000000000D+01  .630000000000D+02 -.190921127796D-07  .200000000000D+02
     .172806000000D+06  .400000000000D+01
 2 10  5 25  2  0  0.0  .258680433035D-03  .341060513165D-11  .000000000000D+00
     .560000000000D+02  .398750000000D+02  .472162524607D-08  .138534062779D+01
     .227987766266D-05  .955415889621D-02  .114608556032D-04  .515358989525D+04
     .180000000000D+06 -.447034835815D-07 -.646209134347D+00  .199303030968D-06
     .940014649600D+00  .147312500000D+03  .307055532367D+01 -.799426156451D-08
    -.564309220030D-09  .100000000000D+01  .158500000000D+04  .000000000000D+00
     .240000000000D+01  .000000000000D+00 -.172294676304D-07  .560000000000D+02
     .172806000000D+06  .400000000000D+01
 3 10  5 25  2  0  0.0  .559446867555D-03  .500222085975D-11  .000000000000D+00
     .810000000000D+02 -.202812500000D+02  .592846122992D-08  .131440302500D+01
    -.103190541267D-05  .130979733076D-01  .594928860664D-05  .515370090485D+04
     .180000000000D+06 -.294297933578D-06 -.179893063316D+01  .106170773506D-06
     .926769942294D+00  .252437500000D+03  .994712909351D+00 -.882965350480D-08
    -.358943522867D-09  .100000000000D+01  .158500000000D+04  .000000000000D+00
     .340000000000D+01  .000000000000D+00 -.465661287308D-08  .810000000000D+02
     .172806000000D+06  .400000000000D+01
 4 10  5 25  2  0  0.0  .892458483577D-04  .829913915368D-11  .000000000000D+00
     .800000000000D+02  .419062500000D+02  .460412035152D-08 -.180297987630D+01
     .212341547012D-05  .908168428577D-02  .121816992760D-04  .515369997215D+04
     .180000000000D+06  .298023223877D-07 -.628347744314D+00 -.150874257088D-06
     .939168783052D+00  .132531250000D+03  .606266371051D+00 -.789354308347D-08
    -.357157734196D-09  .100000000000D+01  .158500000000D+04  .000000000000D+00
     .240000000000D+01  .000000000000D+00 -.605359673500D-08  .800000000000D+02
     .172806000000D+06  .400000000000D+01
 5 10  5 25  2  0  0.0 -.414857640862D-05 -.136424205266D-11  .000000000000D+00
     .830000000000D+02  .117125000000D+03  .456519015849D-08  .297587127913D+01
     .609643757343D-05  .183924229350D-02  .532902777195D-05  .515371047020D+04
     .180000000000D+06 -.130385160446D-07  .413042029910D+00  .372529029846D-08
     .958708426854D+00  .276656250000D+03  .296025225725D+00 -.825570102594D-08
     .287154818294D-09  .100000000000D+01  .158500000000D+04  .000000000000D+00
     .240000000000D+01  .000000000000D+00 -.884756445885D-08  .830000000000D+02
     .172806000000D+06  .400000000000D+01
 6 10  5 25  2  0  0.0  .629710499197D-03 -.117097442853D-10  .000000000000D+00
     .450000000000D+02 -.210312500000D+02  .559309011751D-08 -.274789283937D+01
    -.998377799988D-06  .629416061565D-02  .572763383389D-05  .515365325356D+04
     .180000000000D+06 -.260770320892D-07 -.172830220494D+01  .145286321640D-06
     .934086456427D+00  .253531250000D+03 -.106308855930D+01 -.840642158977D-08
    -.317870383435D-09  .100000000000D+01  .158500000000D+04  .000000000000D+00
     .240000000000D+01  .000000000000D+00 -.512227416039D-08  .450000000000D+02
     .172806000000D+06  .400000000000D+01
 7 10  5 25  2  0  0.0 -.736210495234D-06 -.341060513165D-12  .000000000000D+00
     .360000000000D+02 -.100031250000D+03  .402231040252D-08 -.193689035606D+00
    -.512972474098D-05  .351442629471D-02  .113565474749D-04  .515372039604D+04
     .180000000000D+06  .391155481339D-07  .251446559299D+01  .186264514923D-07
     .971773038705D+00  .164968750000D+03  .303464376866D+01 -.778675292094D-08
     .180721813503D-09  .100000000000D+01  .158500000000D+04  .000000000000D+00
     .240000000000D+01  .000000000000D+00 -.102445483208D-07  .360000000000D+02
     .172806000000D+06  .400000000000D+01
 8 10  5 25  2  0  0.0  .552693381906D-05  .227373675443D-12  .000000000000D+00
     .119000000000D+03 -.885937500000D+02  .356121976767D-08 -.832919426049D+00
    -.474788248539D-05  .110801511910D-01  .114105641842D-04  .515369510651D+04
     .180000000000D+06  .130385160446D-06  .258230565400D+01 -.128522515297D-06
     .993190182792D+00  .172937500000D+03  .310041224258D+01 -.754495713489D-08
     .297869550320D-09  .100000000000D+01  .158500000000D+04  .000000000000D+00
     .340000000000D+01  .000000000000D+00 -.372529029846D-08  .119000000000D+03
     .172806000000D+06  .400000000000D+01
 9 10  5 25  2  0  0.0  .852998346090D-05  .227373675443D-11  .000000000000D+00
     .690000000000D+02 -.792187500000D+02  .395445043302D-08 -.940396825245D+00
    -.398419797421D-05  .170366166858D-01  .106543302536D-04  .515371899414D+04
     .180000000000D+06 -.230967998505D-06  .248325029613D+01  .186264514923D-06
     .980852973309D+00  .192593750000D+03  .151637084568D+01 -.794390232399D-08
     .132148361653D-09  .100000000000D+01  .158500000000D+04  .000000000000D+00
     .240000000000D+01  .000000000000D+00 -.558793544769D-08  .690000000000D+02
     .172806000000D+06  .400000000000D+01
10 10  5 25  2  0  0.0 -.432608649135D-04 -.795807864051D-12  .000000000000D+00
     .180000000000D+03  .121156250000D+03  .458233372974D-08  .304657836114D+01
     .618956983089D-05  .916688889265D-02  .485591590405D-05  .515351130295D+04
     .180000000000D+06 -.335276126862D-07  .438813719358D+00 -.987201929092D-07
     .953718751220D+00  .282937500000D+03  .666597797285D+00 -.819712715753D-08
     .329299430929D-09  .100000000000D+01  .158500000000D+04  .000000000000D+00
     .340000000000D+01  .000000000000D+00 -.279396772385D-08  .180000000000D+03
     .172806000000D+06  .400000000000D+01
11 10  5 25  2  0  0.0 -.646701082587D-04 -.250111042988D-11  .000000000000D+00
     .780000000000D+02  .131562500000D+02  .611918345998D-08 -.322616595488D+00
     .663101673126D-06  .106408015126D-01  .106245279312D-04  .515374706268D+04
     .180000000000D+06  .931322574615D-08 -.864621118300D+00  .119209289551D-06
     .888348477748D+00  .132500000000D+03  .804665169008D+00 -.889965642070D-08
    -.643955394756D-09  .100000000000D+01  .158500000000D+04  .000000000000D+00
     .240000000000D+01  .000000000000D+00 -.116415321827D-07  .780000000000D+02
     .172806000000D+06  .400000000000D+01
12 10  5 25  2  0  0.0 -.111636705697D-03  .420641299570D-11  .000000000000D+00
     .109000000000D+03  .182812500000D+02  .465269380337D-08 -.225410175890D+00
     .962987542152D-06  .353313132655D-02  .794604420662D-05  .515368407440D+04
     .180000000000D+06 -.223517417908D-07 -.271549051177D+01 -.204890966415D-07
     .970953166748D+00  .234625000000D+03 -.442014828423D+00 -.803319175754D-08
     .570023743777D-09  .100000000000D+01  .158500000000D+04  .000000000000D+00
     .240000000000D+01  .000000000000D+00 -.116415321827D-07  .109000000000D+03
     .172806000000D+06  .400000000000D+01
13 10  5 25  2  0  0.0  .304084271193D-03 -.454747350886D-12  .000000000000D+00
     .340000000000D+02 -.866875000000D+02  .392802076069D-08  .227948129999D+01
    -.446289777756D-05  .450421939604D-02  .282749533653D-05  .515375530815D+04
     .180000000000D+06  .763684511185D-07  .153277316218D+01  .558793544769D-07
     .992621297838D+00  .341531250000D+03  .171744283384D+01 -.801354808216D-08
    -.199294015681D-09  .100000000000D+01  .158500000000D+04  .000000000000D+00
     .240000000000D+01  .000000000000D+00 -.107102096081D-07  .340000000000D+02
     .172806000000D+06  .400000000000D+01
14 10  5 25  2  0  0.0  .494113191962D-04  .432009983342D-11  .000000000000D+00
     .710000000000D+02 -.712500000000D+02  .403231081907D-08  .212997819524D+01
    -.357069075108D-05  .504148635082D-02  .321120023727D-05  .515374183846D+04
     .180000000000D+06 -.707805156708D-07  .151097613630D+01 -.145286321640D-06
     .985888321246D+00  .328875000000D+03 -.213612925374D+01 -.805712132573D-08
    -.842892252703D-10  .100000000000D+01  .158500000000D+04  .000000000000D+00
     .240000000000D+01  .000000000000D+00 -.884756445885D-08  .710000000000D+02
     .172806000000D+06  .400000000000D+01
15 10  5 25  2  0  0.0 -.267701223493D-03  .602540239925D-11  .000000000000D+00
     .520000000000D+02 -.602500000000D+02  .487948896459D-08  .200000009340D+01
    -.321120023727D-05  .247923657298D-02  .162981450558D-05  .515376104546D+04
     .180000000000D+06  .316649675369D-07  .144695601772D+01 -.558793544769D-08
     .953504072380D+00  .343593750000D+03 -.161446874122D+00 -.851571185644D-08
    -.118933525487D-09  .100000000000D+01  .158500000000D+04  .000000000000D+00
     .240000000000D+01  .000000000000D+00 -.977888703346D-08  .520000000000D+02
     .172806000000D+06  .400000000000D+01
16 10  5 25  2  0  0.0 -.747940503061D-04 -.375166564481D-11  .000000000000D+00
     .790000000000D+02  .216562500000D+02  .460340603605D-08 -.253862466103D+01
     .115483999252D-05  .594237353653D-02  .804476439953D-05  .515376346779D+04
     .180000000000D+06 -.128522515297D-06 -.269807611050D+01  .931322574615D-08
     .972163917249D+00  .233218750000D+03 -.220977244452D+00 -.789390024120D-08
     .542165440510D-09  .100000000000D+01  .158500000000D+04  .000000000000D+00
     .240000000000D+01  .000000000000D+00 -.977888703346D-08  .790000000000D+02
     .172806000000D+06  .400000000000D+01
